{
  "norad_id": 57507,
  "name": "STARLINK-30219",
  "history": [
    {
      "epoch": "2026-03-28T19:46:09.770016Z",
      "apogee_km": 474.2417101077717,
      "perigee_km": 470.81281563092034,
      "latitude_deg": -2.0548706299850122e-05,
      "longitude_deg": 145.90023418079693,
      "height_km": 472.5122653604829,
      "semi_major_axis_km": 6850.664262869345,
      "eccentricity": 0.00025026,
      "inclination_deg": 43.0015,
      "raan_deg": 268.6796,
      "arg_perigee_deg": 263.042,
      "mean_anomaly_deg": 97.0148,
      "mean_motion_rev_day": 15.31100632
    }
  ]
}